COMMENT,ORIGINATOR,NORAD_CAT_ID,OBJECT_NAME,OBJECT_TYPE,CLASSIFICATION_TYPE,INTLDES,EPOCH,EPOCH_MICROSECONDS,MEAN_MOTION,ECCENTRICITY,INCLINATION,RA_OF_ASC_NODE,ARG_OF_PERICENTER,MEAN_ANOMALY,EPHEMERIS_TYPE,ELEMENT_SET_NO,REV_AT_EPOCH,BSTAR,MEAN_MOTION_DOT,MEAN_MOTION_DDOT,FILE,TLE_LINE0,TLE_LINE1,TLE_LINE2,OBJECT_ID,OBJECT_NUMBER,SEMIMAJOR_AXIS,PERIOD,APOGEE,PERIGEE,DECAYED
"GENERATED VIA SPACETRACK.ORG API","18 SPCS","55101","SPACEBEE-159","PAYLOAD","U","23001CW","2023-07-09 17:27:51","451776","15.21245107","0.0014373","97.4744","250.734","282.3506","77.6121","0","999","2853","0.00060866","0.00013574","0","3953962","0 SPACEBEE-159","1 55101U 23001CW  23190.72767884  .00013574  00000-0  60866-3 0  9991","2 55101  97.4744 250.7340 0014373 282.3506  77.6121 15.21245107 28534","2023-001CW","55101","6880.221","94.659","511.975","492.197","0"
"GENERATED VIA SPACETRACK.ORG API","18 SPCS","55101","SPACEBEE-159","PAYLOAD","U","23001CW","2023-07-11 02:36:56","769696","15.21284397","0.0014419","97.4749","252.105","276.9374","83.0221","0","999","2874","0.00062184","0.00013886","0","3955056","0 SPACEBEE-159","1 55101U 23001CW  23192.10899039  .00013886  00000-0  62184-3 0  9994","2 55101  97.4749 252.1050 0014419 276.9374  83.0221 15.21284397 28745","2023-001CW","55101","6880.102","94.657","511.888","492.047","0"
"GENERATED VIA SPACETRACK.ORG API","18 SPCS","55101","SPACEBEE-159","PAYLOAD","U","23001CW","2023-07-12 03:52:24","261888","15.21321292","0.001437","97.4754","253.15","272.9464","87.0127","0","999","2890","0.00073876","0.00016534","0","3955862","0 SPACEBEE-159","1 55101U 23001CW  23193.16139192  .00016534  00000-0  73876-3 0  9991","2 55101  97.4754 253.1500 0014370 272.9464  87.0127 15.21321292 28907","2023-001CW","55101","6879.991","94.655","511.743","491.970","0"
"GENERATED VIA SPACETRACK.ORG API","18 SPCS","55101","SPACEBEE-159","PAYLOAD","U","23001CW","2023-07-13 16:10:48","798624","15.21371026","0.0014449","97.4754","254.6522","266.9684","92.9898","0","999","2913","0.00069261","0.00015518","0","3957087","0 SPACEBEE-159","1 55101U 23001CW  23194.67417591  .00015518  00000-0  69261-3 0  9994","2 55101  97.4754 254.6522 0014449 266.9684  92.9898 15.21371026 29137","2023-001CW","55101","6879.841","94.651","511.647","491.766","0"
"GENERATED VIA SPACETRACK.ORG API","18 SPCS","55101","SPACEBEE-159","PAYLOAD","U","23001CW","2023-07-15 01:19:43","831488","15.21425423","0.0014612","97.4754","256.0237","261.5793","98.3786","0","999","2934","0.0009444","0.00021236","0","3958348","0 SPACEBEE-159","1 55101U 23001CW  23196.05536842  .00021236  00000-0  94440-3 0  9990","2 55101  97.4754 256.0237 0014612 261.5793  98.3786 15.21425423 29340","2023-001CW","55101","6879.677","94.648","511.595","491.490","0"
"GENERATED VIA SPACETRACK.ORG API","18 SPCS","55101","SPACEBEE-159","PAYLOAD","U","23001CW","2023-07-16 02:35:02","861664","15.21465207","0.0014619","97.4755","257.0685","257.8913","102.0685","0","999","2950","0.00081232","0.0001827","0","3959237","0 SPACEBEE-159","1 55101U 23001CW  23197.10767201  .00018270  00000-0  81232-3 0  9991","2 55101  97.4755 257.0685 0014619 257.8913 102.0685 15.21465207 29501","2023-001CW","55101","6879.557","94.646","511.480","491.365","0"
"GENERATED VIA SPACETRACK.ORG API","18 SPCS","55101","SPACEBEE-159","PAYLOAD","U","23001CW","2023-07-17 10:09:08","496864","15.21514047","0.0014662","97.475","258.3748","252.5445","107.4188","0","999","2970","0.0008999","0.00020282","0","3960302","0 SPACEBEE-159","1 55101U 23001CW  23198.42301501  .00020282  00000-0  89990-3 0  9999","2 55101  97.4750 258.3748 0014662 252.5445 107.4188 15.21514047 29706","2023-001CW","55101","6879.410","94.643","511.362","491.188","0"
"GENERATED VIA SPACETRACK.ORG API","18 SPCS","55101","SPACEBEE-159","PAYLOAD","U","23001CW","2023-07-19 03:11:21","914592","15.21583982","0.0014824","97.4744","260.0735","246.1744","113.7938","0","999","2996","0.0008612","0.00019446","0","3961853","0 SPACEBEE-159","1 55101U 23001CW  23200.13289253  .00019446  00000-0  86120-3 0  9992","2 55101  97.4744 260.0735 0014824 246.1744 113.7938 15.21583982 29961","2023-001CW","55101","6879.199","94.638","511.262","490.867","0"
"GENERATED VIA SPACETRACK.ORG API","18 SPCS","55101","SPACEBEE-159","PAYLOAD","U","23001CW","2023-07-19 17:23:38","953824","15.21602918","0.001488","97.4741","260.6616","244.1153","115.8549","0","999","3005","0.00076024","0.00017163","0","3962869","0 SPACEBEE-159","1 55101U 23001CW  23200.72475641  .00017163  00000-0  76024-3 0  9991","2 55101  97.4741 260.6616 0014880 244.1153 115.8549 15.21602918 30050","2023-001CW","55101","6879.142","94.637","511.243","490.771","0"
"GENERATED VIA SPACETRACK.ORG API","18 SPCS","55101","SPACEBEE-159","PAYLOAD","U","23001CW","2023-07-21 02:32:15","916992","15.21657204","0.0014988","97.4741","262.0334","239.1413","120.8349","0","999","3026","0.00093968","0.00021277","0","3963251","0 SPACEBEE-159","1 55101U 23001CW  23202.10573978  .00021277  00000-0  93968-3 0  9994","2 55101  97.4741 262.0334 0014988 239.1413 120.8349 15.21657204 30260","2023-001CW","55101","6878.979","94.634","511.154","490.533","0"
"GENERATED VIA SPACETRACK.ORG API","18 SPCS","55101","SPACEBEE-159","PAYLOAD","U","23001CW","2023-07-24 09:26:47","439168","15.21779111","0.0015212","97.4736","265.2999","227.2775","132.7181","0","999","3076","0.0008206","0.00018633","0","3963756","0 SPACEBEE-159","1 55101U 23001CW  23205.39360462  .00018633  00000-0  82060-3 0  9993","2 55101  97.4736 265.2999 0015212 227.2775 132.7181 15.21779111 30769","2023-001CW","55101","6878.611","94.626","510.940","490.012","0"
"GENERATED VIA SPACETRACK.ORG API","18 SPCS","55101","SPACEBEE-159","PAYLOAD","U","23001CW","2023-07-25 02:48:20","72736","15.21807481","0.0015254","97.4738","266.0185","224.7109","135.2898","0","999","3087","0.00083822","0.00019052","0","3963759","0 SPACEBEE-159","1 55101U 23001CW  23206.11689899  .00019052  00000-0  83822-3 0  9995","2 55101  97.4738 266.0185 0015254 224.7109 135.2898 15.21807481 30873","2023-001CW","55101","6878.526","94.624","510.883","489.898","0"
"GENERATED VIA SPACETRACK.ORG API","18 SPCS","55101","SPACEBEE-159","PAYLOAD","U","23001CW","2023-07-26 04:03:16","414272","15.21851187","0.0015286","97.4739","267.0636","220.6272","139.3825","0","999","3103","0.00095624","0.00021781","0","3963761","0 SPACEBEE-159","1 55101U 23001CW  23207.16893998  .00021781  00000-0  95624-3 0  9993","2 55101  97.4739 267.0636 0015286 220.6272 139.3825 15.21851187 31033","2023-001CW","55101","6878.394","94.622","510.773","489.745","0"
"GENERATED VIA SPACETRACK.ORG API","18 SPCS","55101","SPACEBEE-159","PAYLOAD","U","23001CW","2023-07-26 21:24:46","86048","15.21882772","0.0015348","97.4741","267.782","217.8687","142.1471","0","999","3114","0.00099631","0.00022721","0","3963989","0 SPACEBEE-159","1 55101U 23001CW  23207.89220007  .00022721  00000-0  99631-3 0  9995","2 55101  97.4741 267.7820 0015348 217.8687 142.1471 15.21882772 31140","2023-001CW","55101","6878.299","94.620","510.721","489.607","0"
"GENERATED VIA SPACETRACK.ORG API","18 SPCS","55101","SPACEBEE-159","PAYLOAD","U","23001CW","2023-07-27 10:02:12","186240","15.21905727","0.0015482","97.4742","268.3046","216.0547","143.9646","0","999","3122","0.0008492","0.00019361","0","3964599","0 SPACEBEE-159","1 55101U 23001CW  23208.41819660  .00019361  00000-0  84920-3 0  9994","2 55101  97.4742 268.3046 0015482 216.0547 143.9646 15.21905727 31221","2023-001CW","55101","6878.230","94.618","510.744","489.446","0"
"GENERATED VIA SPACETRACK.ORG API","18 SPCS","55101","SPACEBEE-159","PAYLOAD","U","23001CW","2023-07-27 10:02:12","186240","15.21905727","0.0015482","97.4742","268.3046","216.0547","143.9646","0","999","3122","0.0008492","0.00019361","0","3964647","0 SPACEBEE-159","1 55101U 23001CW  23208.41819660  .00019361  00000-0  84920-3 0  9994","2 55101  97.4742 268.3046 0015482 216.0547 143.9646 15.21905727 31221","2023-001CW","55101","6878.230","94.618","510.744","489.446","0"
"GENERATED VIA SPACETRACK.ORG API","18 SPCS","55101","SPACEBEE-159","PAYLOAD","U","23001CW","2023-07-28 03:23:39","713568","15.21931791","0.0015548","97.4742","269.0234","213.7019","146.323","0","999","3133","0.00081393","0.00018567","0","3965518","0 SPACEBEE-159","1 55101U 23001CW  23209.14143187  .00018567  00000-0  81393-3 0  9997","2 55101  97.4742 269.0234 0015548 213.7019 146.3230 15.21931791 31337","2023-001CW","55101","6878.151","94.617","510.710","489.322","0"
"GENERATED VIA SPACETRACK.ORG API","18 SPCS","55101","SPACEBEE-159","PAYLOAD","U","23001CW","2023-07-28 14:26:23","970048","15.21945003","0.0015598","97.4744","269.4805","212.0866","147.9422","0","999","3140","0.00069316","0.00015802","0","3965782","0 SPACEBEE-159","1 55101U 23001CW  23209.60166632  .00015802  00000-0  69316-3 0  9998","2 55101  97.4744 269.4805 0015598 212.0866 147.9422 15.21945003 31403","2023-001CW","55101","6878.111","94.616","510.705","489.248","0"
"GENERATED VIA SPACETRACK.ORG API","18 SPCS","55101","SPACEBEE-159","PAYLOAD","U","23001CW","2023-07-29 17:15:52","384320","15.21990115","0.00157","97.4741","270.591","208.2674","151.7711","0","999","3157","0.00083007","0.00018971","0","3966639","0 SPACEBEE-159","1 55101U 23001CW  23210.71935630  .00018971  00000-0  83007-3 0  9997","2 55101  97.4741 270.5910 0015700 208.2674 151.7711 15.21990115 31575","2023-001CW","55101","6877.975","94.613","510.639","489.042","0"
"GENERATED VIA SPACETRACK.ORG API","18 SPCS","55101","SPACEBEE-159","PAYLOAD","U","23001CW","2023-07-31 02:23:58","801632","15.22049316","0.0015787","97.4744","271.9631","203.2082","156.8443","0","999","3178","0.00090953","0.00020837","0","3967744","0 SPACEBEE-159","1 55101U 23001CW  23212.09998613  .00020837  00000-0  90953-3 0  9992","2 55101  97.4744 271.9631 0015787 203.2082 156.8443 15.22049316 31786","2023-001CW","55101","6877.797","94.609","510.520","488.804","0"
